NORAD_CAT_ID,OBJECT_NAME,OBJECT_TYPE,EPOCH,MEAN_MOTION,ECCENTRICITY,INCLINATION,RA_OF_ASC_NODE,ARG_OF_PERICENTER,MEAN_ANOMALY,BSTAR,MEAN_MOTION_DOT,MEAN_MOTION_DDOT,TLE_LINE0,TLE_LINE1,TLE_LINE2,SEMIMAJOR_AXIS,PERIOD,APOGEE,PERIGEE,DECAYED
53709.0,STARLINK-4685,PAYLOAD,2023-11-01 14:11:05,15.08846104,0.0001705,53.216,145.4584,89.8916,270.2272,0.0002457,3.625e-05,0.0,0 STARLINK-4685,1 53709U 22107K   23305.59104130  .00003625  00000-0  24570-3 0  9999,2 53709  53.2160 145.4584 0001705  89.8916 270.2272 15.08846104 64782,6917.862,95.437,540.906,538.547,0.0
53709.0,STARLINK-4685,PAYLOAD,2023-11-01 20:32:38,15.08852057,0.00015,53.2159,144.267,107.7952,252.3204,0.00028723,4.288e-05,0.0,0 STARLINK-4685,1 53709U 22107K   23305.85599605  .00004288  00000-0  28723-3 0  9993,2 53709  53.2159 144.2670 0001500 107.7952 252.3204 15.08852057 64382,6917.844,95.437,540.746,538.671,0.0
53709.0,STARLINK-4685,PAYLOAD,2023-11-02 12:26:29,15.08840045,0.0001755,53.2146,141.2948,93.1313,266.988,6.151e-05,6.91e-06,0.0,0 STARLINK-4685,1 53709U 22107K   23306.51840226  .00000691  00000-0  61510-4 0  9991,2 53709  53.2146 141.2948 0001755  93.1313 266.9880 15.08840045 64480,6917.88,95.438,540.959,538.531,0.0
53709.0,STARLINK-4685,PAYLOAD,2023-11-02 14:01:53,15.08837401,0.0001711,53.215,140.9972,93.0197,267.099,-3.5031e-05,-8.46e-06,0.0,0 STARLINK-4685,1 53709U 22107K   23306.58464293 -.00000846  00000-0 -35031-4 0  9997,2 53709  53.2150 140.9972 0001711  93.0197 267.0990 15.08837401 64935,6917.888,95.438,540.937,538.57,0.0
53709.0,STARLINK-4685,PAYLOAD,2023-11-02 21:58:48,15.08839811,0.0001461,53.2146,139.5108,94.6786,265.4373,-8.7968e-05,-1.688e-05,0.0,0 STARLINK-4685,1 53709U 22107K   23306.91584245 -.00001688  00000-0 -87968-4 0  9995,2 53709  53.2146 139.5108 0001461  94.6786 265.4373 15.08839811 64987,6917.881,95.438,540.757,538.735,0.0
53709.0,STARLINK-4685,PAYLOAD,2023-11-03 05:55:44,15.08836236,0.0001452,53.2156,138.0235,113.101,247.0135,6.1411e-05,6.89e-06,0.0,0 STARLINK-4685,1 53709U 22107K   23307.24704678  .00000689  00000-0  61411-4 0  9999,2 53709  53.2156 138.0235 0001452 113.1010 247.0135 15.08836236 64597,6917.892,95.438,540.761,538.752,0.0
53709.0,STARLINK-4685,PAYLOAD,2023-11-03 13:52:40,15.0883446,0.0001421,53.2156,136.5365,89.5094,270.6061,0.00017718,2.533e-05,0.0,0 STARLINK-4685,1 53709U 22107K   23307.57824679  .00002533  00000-0  17718-3 0  9999,2 53709  53.2156 136.5365 0001421  89.5094 270.6061 15.08834460 65080,6917.897,95.438,540.745,538.779,0.0
53709.0,STARLINK-4685,PAYLOAD,2023-11-03 20:14:12,15.08845527,0.0001356,53.2159,135.347,89.8426,270.2722,8.5769e-05,1.078e-05,0.0,0 STARLINK-4685,1 53709U 22107K   23307.84320119  .00001078  00000-0  85769-4 0  9994,2 53709  53.2159 135.3470 0001356  89.8426 270.2722 15.08845527 64687,6917.863,95.437,540.667,538.79,0.0
53709.0,STARLINK-4685,PAYLOAD,2023-11-03 21:49:35,15.08846263,0.000136,53.2159,135.0496,89.8066,270.3082,9.0481e-05,1.153e-05,0.0,0 STARLINK-4685,1 53709U 22107K   23307.90944044  .00001153  00000-0  90481-4 0  9991,2 53709  53.2159 135.0496 0001360  89.8066 270.3082 15.08846263 65136,6917.861,95.437,540.667,538.785,0.0
53709.0,STARLINK-4685,PAYLOAD,2023-11-04 05:46:31,15.08838295,0.0001361,53.2162,133.5622,85.5092,274.6055,3.1263e-05,2.1e-06,0.0,0 STARLINK-4685,1 53709U 22107K   23308.24064716  .00000210  00000-0  31263-4 0  9994,2 53709  53.2162 133.5622 0001361  85.5092 274.6055 15.08838295 64746,6917.886,95.438,540.692,538.809,0.0
53709.0,STARLINK-4685,PAYLOAD,2023-11-04 20:05:00,15.08838893,0.0001358,53.216,130.886,85.1397,274.975,8.5397e-05,1.071e-05,0.0,0 STARLINK-4685,1 53709U 22107K   23308.83680794  .00001071  00000-0  85397-4 0  9992,2 53709  53.2160 130.8860 0001358  85.1397 274.9750 15.08838893 65276,6917.884,95.438,540.688,538.809,0.0
53709.0,STARLINK-4685,PAYLOAD,2023-11-05 11:58:50,15.08848433,0.0001366,53.2162,127.9123,84.2708,275.844,0.00012688,1.732e-05,0.0,0 STARLINK-4685,1 53709U 22107K   23309.49920103  .00001732  00000-0  12688-3 0  9992,2 53709  53.2162 127.9123 0001366  84.2708 275.8440 15.08848433 64931,6917.855,95.437,540.665,538.775,0.0
53709.0,STARLINK-4685,PAYLOAD,2023-11-05 18:20:23,15.08854435,0.0001361,53.2154,126.7233,85.4679,274.6469,0.00027043,4.02e-05,0.0,0 STARLINK-4685,1 53709U 22107K   23309.76415837  .00004020  00000-0  27043-3 0  9999,2 53709  53.2154 126.7233 0001361  85.4679 274.6469 15.08854435 65417,6917.836,95.437,540.643,538.76,0.0
53709.0,STARLINK-4685,PAYLOAD,2023-11-06 11:49:37,15.08854831,0.0001621,53.2153,123.4516,92.3523,267.7655,0.00029787,4.458e-05,0.0,0 STARLINK-4685,1 53709U 22107K   23310.49279574  .00004458  00000-0  29787-3 0  9999,2 53709  53.2153 123.4516 0001621  92.3523 267.7655 15.08854831 65520,6917.835,95.437,540.821,538.579,0.0
53709.0,STARLINK-4685,PAYLOAD,2023-11-06 18:11:09,15.0885341,0.0001322,53.2145,122.2634,86.5177,273.5966,0.00020339,2.952e-05,0.0,0 STARLINK-4685,1 53709U 22107K   23310.75775320  .00002952  00000-0  20339-3 0  9999,2 53709  53.2145 122.2634 0001322  86.5177 273.5966 15.08853410 65125,6917.839,95.437,540.619,538.79,0.0
53709.0,STARLINK-4685,PAYLOAD,2023-11-07 02:08:06,15.08825757,0.0001264,53.2146,120.7759,102.2869,257.8265,-0.00039871,-6.625e-05,0.0,0 STARLINK-4685,1 53709U 22107K   23311.08896087 -.00006625  00000-0 -39871-3 0  9994,2 53709  53.2146 120.7759 0001264 102.2869 257.8265 15.08825757 65171,6917.924,95.438,540.663,538.914,0.0
53709.0,STARLINK-4685,PAYLOAD,2023-11-07 13:15:48,15.08825995,0.0001339,53.2149,118.694,96.8864,263.228,-0.00032807,-5.503e-05,0.0,0 STARLINK-4685,1 53709U 22107K   23311.55264403 -.00005503  00000-0 -32807-3 0  9993,2 53709  53.2149 118.6940 0001339  96.8864 263.2280 15.08825995 65686,6917.923,95.438,540.715,538.862,0.0
53709.0,STARLINK-4685,PAYLOAD,2023-11-07 22:48:07,15.08830963,0.0001245,53.215,116.9099,96.4972,263.6162,-0.00016412,-2.898e-05,0.0,0 STARLINK-4685,1 53709U 22107K   23311.95008641 -.00002898  00000-0 -16412-3 0  9995,2 53709  53.2150 116.9099 0001245  96.4972 263.6162 15.08830963 65309,6917.908,95.438,540.634,538.912,0.0
53709.0,STARLINK-4685,PAYLOAD,2023-11-08 14:41:58,15.08836191,0.0001211,53.215,113.9364,98.486,261.627,0.00012085,1.636e-05,0.0,0 STARLINK-4685,1 53709U 22107K   23312.61248801  .00001636  00000-0  12085-3 0  9992,2 53709  53.2150 113.9364 0001211  98.4860 261.6270 15.08836191 65848,6917.892,95.438,540.595,538.919,0.0
53709.0,STARLINK-4685,PAYLOAD,2023-11-08 17:52:45,15.08841649,0.0001191,53.2151,113.3418,98.308,261.8047,0.00032119,4.828e-05,0.0,0 STARLINK-4685,1 53709U 22107K   23312.74496777  .00004828  00000-0  32119-3 0  9999,2 53709  53.2151 113.3418 0001191  98.3080 261.8047 15.08841649 65425,6917.875,95.437,540.564,538.916,0.0
53709.0,STARLINK-4685,PAYLOAD,2023-11-09 14:32:46,15.08845289,0.0001122,53.2151,109.4762,98.8755,261.2364,0.00029978,4.487e-05,0.0,0 STARLINK-4685,1 53709U 22107K   23313.60608960  .00004487  00000-0  29978-3 0  9994,2 53709  53.2151 109.4762 0001122  98.8755 261.2364 15.08845289 65993,6917.864,95.437,540.505,538.953,0.0
53709.0,STARLINK-4685,PAYLOAD,2023-11-09 16:08:09,15.08845792,0.0001114,53.2151,109.1789,98.672,261.4398,0.00029315,4.381e-05,0.0,0 STARLINK-4685,1 53709U 22107K   23313.67232933  .00004381  00000-0  29315-3 0  9992,2 53709  53.2151 109.1789 0001114  98.6720 261.4398 15.08845792 65561,6917.863,95.437,540.498,538.957,0.0
53709.0,STARLINK-4685,PAYLOAD,2023-11-10 14:23:33,15.08838556,0.0001113,53.215,105.0161,92.5944,267.5175,4.2924e-07,-2.81e-06,0.0,0 STARLINK-4685,1 53709U 22107K   23314.59969034 -.00000281  00000-0  42924-6 0  9993,2 53709  53.2150 105.0161 0001113  92.5944 267.5175 15.08838556 66144,6917.885,95.438,540.52,538.98,0.0
53709.0,STARLINK-4685,PAYLOAD,2023-11-10 17:34:19,15.08845877,0.0001365,53.2152,104.4215,96.2598,263.855,5.8434e-05,6.42e-06,0.0,0 STARLINK-4685,1 53709U 22107K   23314.73216844  .00000642  00000-0  58434-4 0  9994,2 53709  53.2152 104.4215 0001365  96.2598 263.8550 15.08845877 65727,6917.862,95.437,540.672,538.783,0.0
53709.0,STARLINK-4685,PAYLOAD,2023-11-11 14:14:20,15.08838865,0.0001158,53.2157,100.5548,80.8341,279.2782,8.9835e-05,1.142e-05,0.0,0 STARLINK-4685,1 53709U 22107K   23315.59329363  .00001142  00000-0  89835-4 0  9995,2 53709  53.2157 100.5548 0001158  80.8341 279.2782 15.08838865 66293,6917.884,95.438,540.55,538.948,0.0
53709.0,STARLINK-4685,PAYLOAD,2023-11-11 17:25:06,15.08842483,0.0001282,53.2161,99.9595,72.9947,287.1185,7.7951e-05,9.53e-06,0.0,0 STARLINK-4685,1 53709U 22107K   23315.72577238  .00000953  00000-0  77951-4 0  9991,2 53709  53.2161  99.9595 0001282  72.9947 287.1185 15.08842483 65872,6917.873,95.437,540.625,538.851,0.0
53709.0,STARLINK-4685,PAYLOAD,2023-11-12 09:18:58,15.08837604,0.0001226,53.2155,96.987,84.751,275.3622,0.0001038,1.364e-05,0.0,0 STARLINK-4685,1 53709U 22107K   23316.38817556  .00001364  00000-0  10380-3 0  9993,2 53709  53.2155  96.9870 0001226  84.7510 275.3622 15.08837604 65978,6917.888,95.438,540.601,538.905,0.0
53709.0,STARLINK-4685,PAYLOAD,2023-11-12 14:05:07,15.08839167,0.0001208,53.2158,96.0949,83.2625,276.8504,0.00012051,1.631e-05,0.0,0 STARLINK-4685,1 53709U 22107K   23316.58689536  .00001631  00000-0  12051-3 0  9994,2 53709  53.2158  96.0949 0001208  83.2625 276.8504 15.08839167 66444,6917.883,95.438,540.584,538.912,0.0
53709.0,STARLINK-4685,PAYLOAD,2023-11-12 17:15:53,15.08843275,0.0001259,53.2157,95.5003,81.1657,278.9477,0.0001392,1.928e-05,0.0,0 STARLINK-4685,1 53709U 22107K   23316.71937363  .00001928  00000-0  13920-3 0  9998,2 53709  53.2157  95.5003 0001259  81.1657 278.9477 15.08843275 66465,6917.87,95.437,540.606,538.864,0.0
53709.0,STARLINK-4685,PAYLOAD,2023-11-13 09:09:45,15.08844999,0.0001272,53.2159,92.527,81.6383,278.4754,0.00015954,2.252e-05,0.0,0 STARLINK-4685,1 53709U 22107K   23317.38177277  .00002252  00000-0  15954-3 0  9992,2 53709  53.2159  92.5270 0001272  81.6383 278.4754 15.08844999 66564,6917.865,95.437,540.61,538.85,0.0
